JILIN GAOFEN OBJECT D   
1 68694U 26080D   26117.13968559  .00001673  00000+0  10837-3 0  9990
2 68694  97.6677 192.7815 0014644 233.4097 126.5785 15.09459501  1944
JILIN GAOFEN OBJECT E   
1 68695U 26080E   26118.73053111  .00001637  00000+0  10606-3 0  9991
2 68695  97.6641 194.3681 0015072 227.4148 132.5809 15.09490046  2169
JILIN GAOFEN OBJECT F   
1 68696U 26080F   26118.92886554  .00001555  00000+0  10081-3 0  9994
2 68696  97.6628 194.5652 0014039 229.3436 130.6572 15.09549581  2196
JILIN GAOFEN OBJECT G   
1 68697U 26080G   26112.29952414  .00003050  00000+0  19367-3 0  9996
2 68697  97.6673 187.9421 0014146 254.7084 105.2581 15.09566725  1193
JILIN GAOFEN OBJECT H   
1 68698U 26080H   26112.29931017  .00004743  00000+0  29850-3 0  9991
2 68698  97.6650 187.9421 0014104 255.6064 104.3599 15.09605996  1194
STARLINK-37358          
1 68699U 26081A   26119.28117316  .00200049  00000+0  99065-3 0  9999
2 68699  53.1585 167.3970 0001277  93.8519 266.2650 15.80941463  2372
STARLINK-37334          
1 68700U 26081B   26119.28042259  .00241265  00000+0  11872-2 0  9999
2 68700  53.1582 167.3918 0001295  84.9029 275.2142 15.80961277  2372
STARLINK-36955          
1 68701U 26081C   26119.27967195  .00245307  00000+0  12067-2 0  9992
2 68701  53.1584 167.3871 0001172 105.4328 254.6824 15.80956726  2379
STARLINK-36275          
1 68702U 26081D   26119.27892314  .00148998  00000+0  74407-3 0  9998
2 68702  53.1586 167.3822 0001090  98.7541 261.3606 15.80914054  2379
STARLINK-36271          
1 68703U 26081E   26119.27817419  .00251962  00000+0  12393-2 0  9993
2 68703  53.1584 167.3776 0001441 111.7173 248.4004 15.80941303  2378
STARLINK-37356          
1 68704U 26081F   26119.27742213  .00184689  00000+0  91716-3 0  9991
2 68704  53.1589 167.3726 0001145  83.5790 276.5363 15.80925756  2375
STARLINK-35369          
1 68705U 26081G   26119.27667202  .00222671  00000+0  10991-2 0  9995
2 68705  53.1584 167.3672 0001248  88.4352 271.6814 15.80946851  2379
STARLINK-37319          
1 68706U 26081H   26119.27442231  .00159718  00000+0  79611-3 0  9995
2 68706  53.1585 167.3520 0001350  70.7346 289.3822 15.80920728  2374
STARLINK-37112          
1 68707U 26081J   26119.27592204  .00172225  00000+0  85678-3 0  9990
2 68707  53.1587 167.3618 0001184  84.5913 275.5245 15.80924838  2375
STARLINK-37340          
1 68708U 26081K   26119.27517155  .00244786  00000+0  12042-2 0  9999
2 68708  53.1582 167.3568 0001255  80.3048 279.8117 15.80957784  2378
STARLINK-37303          
1 68709U 26081L   26119.27367177  .00148014  00000+0  73914-3 0  9990
2 68709  53.1586 167.3469 0001178  79.3469 280.7686 15.80917635  2375
