[{"OBJECT_NAME":"JILIN GAOFEN OBJECT D","OBJECT_ID":"2026-080D","EPOCH":"2026-04-27T03:21:08.834976","MEAN_MOTION":15.09459501,"ECCENTRICITY":0.00146442,"INCLINATION":97.6677,"RA_OF_ASC_NODE":192.7815,"ARG_OF_PERICENTER":233.4097,"MEAN_ANOMALY":126.5785,"EPHEMERIS_TYPE":0,"CLASSIFICATION_TYPE":"U","NORAD_CAT_ID":68694,"ELEMENT_SET_NO":999,"REV_AT_EPOCH":194,"BSTAR":0.00010837065,"MEAN_MOTION_DOT":1.673e-5,"MEAN_MOTION_DDOT":0},{"OBJECT_NAME":"JILIN GAOFEN OBJECT E","OBJECT_ID":"2026-080E","EPOCH":"2026-04-28T17:31:57.887904","MEAN_MOTION":15.09490046,"ECCENTRICITY":0.00150724,"INCLINATION":97.6641,"RA_OF_ASC_NODE":194.3681,"ARG_OF_PERICENTER":227.4148,"MEAN_ANOMALY":132.5809,"EPHEMERIS_TYPE":0,"CLASSIFICATION_TYPE":"U","NORAD_CAT_ID":68695,"ELEMENT_SET_NO":999,"REV_AT_EPOCH":216,"BSTAR":0.00010605577,"MEAN_MOTION_DOT":1.637e-5,"MEAN_MOTION_DDOT":0},{"OBJECT_NAME":"JILIN GAOFEN OBJECT F","OBJECT_ID":"2026-080F","EPOCH":"2026-04-28T22:17:33.982656","MEAN_MOTION":15.09549581,"ECCENTRICITY":0.00140399,"INCLINATION":97.6628,"RA_OF_ASC_NODE":194.5652,"ARG_OF_PERICENTER":229.3436,"MEAN_ANOMALY":130.6572,"EPHEMERIS_TYPE":0,"CLASSIFICATION_TYPE":"U","NORAD_CAT_ID":68696,"ELEMENT_SET_NO":999,"REV_AT_EPOCH":219,"BSTAR":0.0001008075,"MEAN_MOTION_DOT":1.555e-5,"MEAN_MOTION_DDOT":0},{"OBJECT_NAME":"JILIN GAOFEN OBJECT G","OBJECT_ID":"2026-080G","EPOCH":"2026-04-22T07:11:18.885696","MEAN_MOTION":15.09566725,"ECCENTRICITY":0.00141468,"INCLINATION":97.6673,"RA_OF_ASC_NODE":187.9421,"ARG_OF_PERICENTER":254.7084,"MEAN_ANOMALY":105.2581,"EPHEMERIS_TYPE":0,"CLASSIFICATION_TYPE":"U","NORAD_CAT_ID":68697,"ELEMENT_SET_NO":999,"REV_AT_EPOCH":119,"BSTAR":0.00019366799,"MEAN_MOTION_DOT":3.05e-5,"MEAN_MOTION_DDOT":0},{"OBJECT_NAME":"JILIN GAOFEN OBJECT H","OBJECT_ID":"2026-080H","EPOCH":"2026-04-22T07:11:00.398688","MEAN_MOTION":15.09605996,"ECCENTRICITY":0.0014104,"INCLINATION":97.665,"RA_OF_ASC_NODE":187.9421,"ARG_OF_PERICENTER":255.6064,"MEAN_ANOMALY":104.3599,"EPHEMERIS_TYPE":0,"CLASSIFICATION_TYPE":"U","NORAD_CAT_ID":68698,"ELEMENT_SET_NO":999,"REV_AT_EPOCH":119,"BSTAR":0.00029850024,"MEAN_MOTION_DOT":4.743e-5,"MEAN_MOTION_DDOT":0},{"OBJECT_NAME":"STARLINK-37358","OBJECT_ID":"2026-081A","EPOCH":"2026-04-29T06:44:53.361024","MEAN_MOTION":15.80941463,"ECCENTRICITY":0.00012771,"INCLINATION":53.1585,"RA_OF_ASC_NODE":167.397,"ARG_OF_PERICENTER":93.8519,"MEAN_ANOMALY":266.265,"EPHEMERIS_TYPE":0,"CLASSIFICATION_TYPE":"U","NORAD_CAT_ID":68699,"ELEMENT_SET_NO":999,"REV_AT_EPOCH":237,"BSTAR":0.00099065365,"MEAN_MOTION_DOT":0.00200049,"MEAN_MOTION_DDOT":0},{"OBJECT_NAME":"STARLINK-37334","OBJECT_ID":"2026-081B","EPOCH":"2026-04-29T06:43:48.511776","MEAN_MOTION":15.80961277,"ECCENTRICITY":0.00012958,"INCLINATION":53.1582,"RA_OF_ASC_NODE":167.3918,"ARG_OF_PERICENTER":84.9029,"MEAN_ANOMALY":275.2142,"EPHEMERIS_TYPE":0,"CLASSIFICATION_TYPE":"U","NORAD_CAT_ID":68700,"ELEMENT_SET_NO":999,"REV_AT_EPOCH":237,"BSTAR":0.0011872292,"MEAN_MOTION_DOT":0.00241265,"MEAN_MOTION_DDOT":0},{"OBJECT_NAME":"STARLINK-36955","OBJECT_ID":"2026-081C","EPOCH":"2026-04-29T06:42:43.656480","MEAN_MOTION":15.80956726,"ECCENTRICITY":0.00011726,"INCLINATION":53.1584,"RA_OF_ASC_NODE":167.3871,"ARG_OF_PERICENTER":105.4328,"MEAN_ANOMALY":254.6824,"EPHEMERIS_TYPE":0,"CLASSIFICATION_TYPE":"U","NORAD_CAT_ID":68701,"ELEMENT_SET_NO":999,"REV_AT_EPOCH":237,"BSTAR":0.0012067455,"MEAN_MOTION_DOT":0.00245307,"MEAN_MOTION_DDOT":0},{"OBJECT_NAME":"STARLINK-36275","OBJECT_ID":"2026-081D","EPOCH":"2026-04-29T06:41:38.959296","MEAN_MOTION":15.80914054,"ECCENTRICITY":0.00010904,"INCLINATION":53.1586,"RA_OF_ASC_NODE":167.3822,"ARG_OF_PERICENTER":98.7541,"MEAN_ANOMALY":261.3606,"EPHEMERIS_TYPE":0,"CLASSIFICATION_TYPE":"U","NORAD_CAT_ID":68702,"ELEMENT_SET_NO":999,"REV_AT_EPOCH":237,"BSTAR":0.00074407021,"MEAN_MOTION_DOT":0.00148998,"MEAN_MOTION_DDOT":0},{"OBJECT_NAME":"STARLINK-36271","OBJECT_ID":"2026-081E","EPOCH":"2026-04-29T06:40:34.250016","MEAN_MOTION":15.80941303,"ECCENTRICITY":0.00014417,"INCLINATION":53.1584,"RA_OF_ASC_NODE":167.3776,"ARG_OF_PERICENTER":111.7173,"MEAN_ANOMALY":248.4004,"EPHEMERIS_TYPE":0,"CLASSIFICATION_TYPE":"U","NORAD_CAT_ID":68703,"ELEMENT_SET_NO":999,"REV_AT_EPOCH":237,"BSTAR":0.00123931,"MEAN_MOTION_DOT":0.00251962,"MEAN_MOTION_DDOT":0},{"OBJECT_NAME":"STARLINK-37356","OBJECT_ID":"2026-081F","EPOCH":"2026-04-29T06:39:29.272032","MEAN_MOTION":15.80925756,"ECCENTRICITY":0.00011457,"INCLINATION":53.1589,"RA_OF_ASC_NODE":167.3726,"ARG_OF_PERICENTER":83.579,"MEAN_ANOMALY":276.5363,"EPHEMERIS_TYPE":0,"CLASSIFICATION_TYPE":"U","NORAD_CAT_ID":68704,"ELEMENT_SET_NO":999,"REV_AT_EPOCH":237,"BSTAR":0.00091715861,"MEAN_MOTION_DOT":0.00184689,"MEAN_MOTION_DDOT":0},{"OBJECT_NAME":"STARLINK-35369","OBJECT_ID":"2026-081G","EPOCH":"2026-04-29T06:38:24.462528","MEAN_MOTION":15.80946851,"ECCENTRICITY":0.00012489,"INCLINATION":53.1584,"RA_OF_ASC_NODE":167.3672,"ARG_OF_PERICENTER":88.4352,"MEAN_ANOMALY":271.6814,"EPHEMERIS_TYPE":0,"CLASSIFICATION_TYPE":"U","NORAD_CAT_ID":68705,"ELEMENT_SET_NO":999,"REV_AT_EPOCH":237,"BSTAR":0.0010991093,"MEAN_MOTION_DOT":0.00222671,"MEAN_MOTION_DDOT":0},{"OBJECT_NAME":"STARLINK-37319","OBJECT_ID":"2026-081H","EPOCH":"2026-04-29T06:35:10.087584","MEAN_MOTION":15.80920728,"ECCENTRICITY":0.00013508,"INCLINATION":53.1585,"RA_OF_ASC_NODE":167.352,"ARG_OF_PERICENTER":70.7346,"MEAN_ANOMALY":289.3822,"EPHEMERIS_TYPE":0,"CLASSIFICATION_TYPE":"U","NORAD_CAT_ID":68706,"ELEMENT_SET_NO":999,"REV_AT_EPOCH":237,"BSTAR":0.00079611387,"MEAN_MOTION_DOT":0.00159718,"MEAN_MOTION_DDOT":0},{"OBJECT_NAME":"STARLINK-37112","OBJECT_ID":"2026-081J","EPOCH":"2026-04-29T06:37:19.664256","MEAN_MOTION":15.80924838,"ECCENTRICITY":0.00011848,"INCLINATION":53.1587,"RA_OF_ASC_NODE":167.3618,"ARG_OF_PERICENTER":84.5913,"MEAN_ANOMALY":275.5245,"EPHEMERIS_TYPE":0,"CLASSIFICATION_TYPE":"U","NORAD_CAT_ID":68707,"ELEMENT_SET_NO":999,"REV_AT_EPOCH":237,"BSTAR":0.00085677574,"MEAN_MOTION_DOT":0.00172225,"MEAN_MOTION_DDOT":0},{"OBJECT_NAME":"STARLINK-37340","OBJECT_ID":"2026-081K","EPOCH":"2026-04-29T06:36:14.821920","MEAN_MOTION":15.80957784,"ECCENTRICITY":0.00012551,"INCLINATION":53.1582,"RA_OF_ASC_NODE":167.3568,"ARG_OF_PERICENTER":80.3048,"MEAN_ANOMALY":279.8117,"EPHEMERIS_TYPE":0,"CLASSIFICATION_TYPE":"U","NORAD_CAT_ID":68708,"ELEMENT_SET_NO":999,"REV_AT_EPOCH":237,"BSTAR":0.0012042056,"MEAN_MOTION_DOT":0.00244786,"MEAN_MOTION_DDOT":0},{"OBJECT_NAME":"STARLINK-37303","OBJECT_ID":"2026-081L","EPOCH":"2026-04-29T06:34:05.240928","MEAN_MOTION":15.80917635,"ECCENTRICITY":0.00011781,"INCLINATION":53.1586,"RA_OF_ASC_NODE":167.3469,"ARG_OF_PERICENTER":79.3469,"MEAN_ANOMALY":280.7686,"EPHEMERIS_TYPE":0,"CLASSIFICATION_TYPE":"U","NORAD_CAT_ID":68709,"ELEMENT_SET_NO":999,"REV_AT_EPOCH":237,"BSTAR":0.00073914236,"MEAN_MOTION_DOT":0.00148014,"MEAN_MOTION_DDOT":0}]
